{
    "links": {
        "self": "http://www.neowsapp.com/rest/v1/neo/3798983?api_key=iIulBulltgU6a56xZRHN4H3l9WmuAYTsLGpBGhQ2"
    },
    "id": "3798983",
    "neo_reference_id": "3798983",
    "name": "(2018 BU6)",
    "designation": "2018 BU6",
    "nasa_jpl_url": "http://ssd.jpl.nasa.gov/sbdb.cgi?sstr=3798983",
    "absolute_magnitude_h": 24.8,
    "estimated_diameter": {
        "kilometers": {
            "estimated_diameter_min": 0.0291443905,
            "estimated_diameter_max": 0.0651688382
        },
        "meters": {
            "estimated_diameter_min": 29.1443904535,
            "estimated_diameter_max": 65.1688382168
        },
        "miles": {
            "estimated_diameter_min": 0.018109479,
            "estimated_diameter_max": 0.0404940262
        },
        "feet": {
            "estimated_diameter_min": 95.6180819754,
            "estimated_diameter_max": 213.8085311752
        }
    },
    "is_potentially_hazardous_asteroid": false,
    "close_approach_data": [
        {
            "close_approach_date": "2015-02-19",
            "close_approach_date_full": "2015-Feb-19 13:28",
            "epoch_date_close_approach": 1424352480000,
            "relative_velocity": {
                "kilometers_per_second": "27.7552926486",
                "kilometers_per_hour": "99919.053534852",
                "miles_per_hour": "62085.8141255862"
            },
            "miss_distance": {
                "astronomical": "0.4206348114",
                "lunar": "163.6269416346",
                "kilometers": "62926071.833291718",
                "miles": "39100447.9253449884"
            },
            "orbiting_body": "Earth"
        },
        {
            "close_approach_date": "2018-01-26",
            "close_approach_date_full": "2018-Jan-26 01:14",
            "epoch_date_close_approach": 1516929240000,
            "relative_velocity": {
                "kilometers_per_second": "15.7869425969",
                "kilometers_per_hour": "56832.9933489185",
                "miles_per_hour": "35313.8118950544"
            },
            "miss_distance": {
                "astronomical": "0.0122665378",
                "lunar": "4.7716832042",
                "kilometers": "1835047.927154486",
                "miles": "1140245.9080284668"
            },
            "orbiting_body": "Earth"
        }
    ],
    "orbital_data": {
        "orbit_id": "3",
        "orbit_determination_date": "2018-02-07 06:55:02",
        "first_observation_date": "2018-01-28",
        "last_observation_date": "2018-02-07",
        "data_arc_in_days": 10,
        "observations_used": 56,
        "orbit_uncertainty": "8",
        "minimum_orbit_intersection": ".00567475",
        "jupiter_tisserand_invariant": "3.506",
        "epoch_osculation": "2458148.5",
        "eccentricity": ".6180782507248532",
        "semi_major_axis": "2.058373411205049",
        "inclination": "8.514868369089067",
        "ascending_node_longitude": "122.771328433795",
        "orbital_period": "1078.660242752372",
        "perihelion_distance": ".7861375738688832",
        "perihelion_argument": "300.5600608889142",
        "aphelion_distance": "3.330609248541214",
        "perihelion_time": "2458104.241887741038",
        "mean_anomaly": "14.77102778217816",
        "mean_motion": ".333747352253758",
        "equinox": "J2000",
        "orbit_class": {
            "orbit_class_type": "APO",
            "orbit_class_description": "Near-Earth asteroid orbits which cross the Earth’s orbit similar to that of 1862 Apollo",
            "orbit_class_range": "a (semi-major axis) > 1.0 AU; q (perihelion) < 1.017 AU"
        }
    },
    "is_sentry_object": false
}